NORAD_CAT_ID,OBJECT_NAME,OBJECT_TYPE,EPOCH,MEAN_MOTION,ECCENTRICITY,INCLINATION,RA_OF_ASC_NODE,ARG_OF_PERICENTER,MEAN_ANOMALY,BSTAR,MEAN_MOTION_DOT,MEAN_MOTION_DDOT,TLE_LINE0,TLE_LINE1,TLE_LINE2,SEMIMAJOR_AXIS,PERIOD,APOGEE,PERIGEE,DECAYED
49143.0,STARLINK-3109,PAYLOAD,2023-12-01 22:01:47,14.98337145,0.0002328,69.9995,204.0837,266.3599,93.7293,3.0254e-05,2.68e-06,0.0,0 STARLINK-3109,1 49143U 21082P   23335.91790892  .00000268  00000-0  30254-4 0  9999,2 49143  69.9995 204.0837 0002328 266.3599  93.7293 14.98337145123441,6950.171,96.107,573.654,570.418,0.0
49143.0,STARLINK-3109,PAYLOAD,2023-12-02 01:14:02,14.98343724,0.0002196,69.9999,203.7487,265.3035,94.7873,8.0733e-05,8.71e-06,0.0,0 STARLINK-3109,1 49143U 21082P   23336.05142336  .00000871  00000-0  80733-4 0  9996,2 49143  69.9999 203.7487 0002196 265.3035  94.7873 14.98343724122342,6950.15,96.106,573.542,570.489,0.0
49143.0,STARLINK-3109,PAYLOAD,2023-12-02 18:51:32,14.98327333,0.0002369,70.0009,201.9023,240.5967,119.4956,2.9554e-05,2.6e-06,0.0,0 STARLINK-3109,1 49143U 21082P   23336.78579072  .00000260  00000-0  29554-4 0  9993,2 49143  70.0009 201.9023 0002369 240.5967 119.4956 14.98327333122451,6950.201,96.107,573.713,570.42,0.0
49143.0,STARLINK-3109,PAYLOAD,2023-12-02 22:03:49,14.98320031,0.0002438,69.9995,201.5605,252.9902,107.099,-5.0709e-05,-6.98e-06,0.0,0 STARLINK-3109,1 49143U 21082P   23336.91931782 -.00000698  00000-0 -50709-4 0  9991,2 49143  69.9995 201.5605 0002438 252.9902 107.0990 14.98320031123592,6950.224,96.108,573.783,570.394,0.0
49143.0,STARLINK-3109,PAYLOAD,2023-12-03 01:16:05,14.98321804,0.0002502,69.9993,201.2242,256.2463,103.8417,-3.8892e-05,-5.57e-06,0.0,0 STARLINK-3109,1 49143U 21082P   23337.05283709 -.00000557  00000-0 -38892-4 0  9999,2 49143  69.9993 201.2242 0002502 256.2463 103.8417 14.98321804122490,6950.218,96.108,573.822,570.344,0.0
49143.0,STARLINK-3109,PAYLOAD,2023-12-03 14:05:09,14.98319441,0.0002463,69.9989,199.8775,271.0005,89.0871,9.8413e-05,1.081e-05,0.0,0 STARLINK-3109,1 49143U 21082P   23337.58691721  .00001081  00000-0  98413-4 0  9990,2 49143  69.9989 199.8775 0002463 271.0005  89.0871 14.98319441123697,6950.226,96.108,573.802,570.379,0.0
49143.0,STARLINK-3109,PAYLOAD,2023-12-04 01:18:06,14.98321098,0.0002471,69.999,198.699,264.7958,95.2919,0.00012936,1.45e-05,0.0,0 STARLINK-3109,1 49143U 21082P   23338.05423736  .00001450  00000-0  12936-3 0  9997,2 49143  69.9990 198.6990 0002471 264.7958  95.2919 14.98321098122647,6950.22,96.108,573.803,570.368,0.0
49143.0,STARLINK-3109,PAYLOAD,2023-12-05 01:20:06,14.983303,0.0002197,69.9993,196.1743,264.9829,95.1079,0.00018579,2.125e-05,0.0,0 STARLINK-3109,1 49143U 21082P   23339.05562912  .00002125  00000-0  18579-3 0  9997,2 49143  69.9993 196.1743 0002197 264.9829  95.1079 14.98330300122791,6950.192,96.107,573.584,570.53,0.0
49143.0,STARLINK-3109,PAYLOAD,2023-12-05 23:45:58,14.98333019,0.0002895,69.9983,193.8169,259.9219,100.1614,8.5555e-05,9.28e-06,0.0,0 STARLINK-3109,1 49143U 21082P   23339.99026524  .00000928  00000-0  85555-4 0  9992,2 49143  69.9983 193.8169 0002895 259.9219 100.1614 14.98333019124051,6950.184,96.107,574.061,570.036,0.0
49143.0,STARLINK-3109,PAYLOAD,2023-12-06 22:11:52,14.9833111,0.0002575,69.9984,191.4606,274.8187,85.2678,1.0797e-05,3.6e-07,0.0,0 STARLINK-3109,1 49143U 21082P   23340.92490767  .00000036  00000-0  10797-4 0  9997,2 49143  69.9984 191.4606 0002575 274.8187  85.2678 14.98331110124195,6950.189,96.107,573.844,570.265,0.0
49143.0,STARLINK-3109,PAYLOAD,2023-12-06 23:48:00,14.98332708,0.0002136,69.9991,191.2923,292.0048,68.0884,-2.4917e-05,-3.9e-06,0.0,0 STARLINK-3109,1 49143U 21082P   23340.99167037 -.00000390  00000-0 -24917-4 0  9999,2 49143  69.9991 191.2923 0002136 292.0048  68.0884 14.98332708123083,6950.185,96.107,573.534,570.565,0.0
49143.0,STARLINK-3109,PAYLOAD,2023-12-07 14:13:12,14.98333413,0.0002508,69.9979,189.7793,270.603,89.4841,2.3163e-05,1.83e-06,0.0,0 STARLINK-3109,1 49143U 21082P   23341.59250574  .00000183  00000-0  23163-4 0  9995,2 49143  69.9979 189.7793 0002508 270.6030  89.4841 14.98333413124290,6950.182,96.107,573.79,570.304,0.0
49143.0,STARLINK-3109,PAYLOAD,2023-12-07 23:50:00,14.98331949,0.0002796,69.9989,188.7641,266.9641,93.1198,3.7973e-05,3.6e-06,0.0,0 STARLINK-3109,1 49143U 21082P   23341.99306192  .00000360  00000-0  37973-4 0  9998,2 49143  69.9989 188.7641 0002796 266.9641  93.1198 14.98331949123239,6950.187,96.107,573.995,570.109,0.0
49143.0,STARLINK-3109,PAYLOAD,2023-12-09 23:54:02,14.98332473,0.0002869,69.9982,183.7163,269.5725,90.5105,1.0914e-05,3.7e-07,0.0,0 STARLINK-3109,1 49143U 21082P   23343.99586028  .00000037  00000-0  10914-4 0  9995,2 49143  69.9982 183.7163 0002869 269.5725  90.5105 14.98332473123534,6950.185,96.107,574.044,570.056,0.0
49143.0,STARLINK-3109,PAYLOAD,2023-12-10 14:19:16,14.98319402,0.0002764,69.9988,182.2011,269.4219,90.6623,-0.00012492,-1.583e-05,0.0,0 STARLINK-3109,1 49143U 21082P   23344.59671363 -.00001583  00000-0 -12492-3 0  9990,2 49143  69.9988 182.2011 0002764 269.4219  90.6623 14.98319402124744,6950.226,96.108,574.012,570.17,0.0
49143.0,STARLINK-3109,PAYLOAD,2023-12-10 19:07:41,14.9830874,0.0002008,70.0019,181.7018,241.1742,118.9215,-0.00023492,-2.893e-05,0.0,0 STARLINK-3109,1 49143U 21082P   23344.79700480 -.00002893  00000-0 -23492-3 0  9992,2 49143  70.0019 181.7018 0002008 241.1742 118.9215 14.98308740123655,6950.259,96.108,573.519,570.728,0.0
49143.0,STARLINK-3109,PAYLOAD,2023-12-10 22:19:56,14.98319147,0.0002308,69.9987,181.3614,267.3855,92.704,-0.00010225,-1.312e-05,0.0,0 STARLINK-3109,1 49143U 21082P   23344.93051691 -.00001312  00000-0 -10225-3 0  9996,2 49143  69.9987 181.3614 0002308 267.3855  92.7040 14.98319147124796,6950.226,96.108,573.696,570.487,0.0
49143.0,STARLINK-3109,PAYLOAD,2023-12-11 14:21:17,14.98316859,0.0002471,69.9987,179.6779,268.5214,91.5662,6.4042e-05,6.71e-06,0.0,0 STARLINK-3109,1 49143U 21082P   23345.59811472  .00000671  00000-0  64042-4 0  9992,2 49143  69.9987 179.6779 0002471 268.5214  91.5662 14.98316859124896,6950.234,96.108,573.816,570.381,0.0
49143.0,STARLINK-3109,PAYLOAD,2023-12-11 22:21:57,14.98319242,0.0002641,69.9981,178.8353,270.1618,89.9239,8.5836e-05,9.31e-06,0.0,0 STARLINK-3109,1 49143U 21082P   23345.93191509  .00000931  00000-0  85836-4 0  9995,2 49143  69.9981 178.8353 0002641 270.1618  89.9239 14.98319242124941,6950.226,96.108,573.927,570.256,0.0
49143.0,STARLINK-3109,PAYLOAD,2023-12-12 14:23:18,14.98320858,0.0002667,69.9981,177.1519,273.4214,86.664,9.0485e-05,9.87e-06,0.0,0 STARLINK-3109,1 49143U 21082P   23346.59951875  .00000987  00000-0  90485-4 0  9995,2 49143  69.9981 177.1519 0002667 273.4214  86.6640 14.98320858125040,6950.221,96.108,573.94,570.233,0.0
49143.0,STARLINK-3109,PAYLOAD,2023-12-12 22:23:58,14.98322365,0.0002604,69.9982,176.3107,271.1874,88.8987,0.00010153,1.118e-05,0.0,0 STARLINK-3109,1 49143U 21082P   23346.93331944  .00001118  00000-0  10153-3 0  9992,2 49143  69.9982 176.3107 0002604 271.1874  88.8987 14.98322365125091,6950.217,96.107,573.891,570.272,0.0
49143.0,STARLINK-3109,PAYLOAD,2023-12-13 14:25:19,14.98328797,0.0002656,69.9981,174.6278,273.8462,86.2393,6.8172e-05,7.2e-06,0.0,0 STARLINK-3109,1 49143U 21082P   23347.60091831  .00000720  00000-0  68172-4 0  9998,2 49143  69.9981 174.6278 0002656 273.8462  86.2393 14.98328797125198,6950.197,96.107,573.908,570.216,0.0
49143.0,STARLINK-3109,PAYLOAD,2023-12-13 22:25:59,14.98329048,0.0002616,69.9982,173.7863,271.2409,88.8451,6.5544e-05,6.89e-06,0.0,0 STARLINK-3109,1 49143U 21082P   23347.93471853  .00000689  00000-0  65544-4 0  9994,2 49143  69.9982 173.7863 0002616 271.2409  88.8451 14.98329048125247,6950.196,96.107,573.879,570.243,0.0
49143.0,STARLINK-3109,PAYLOAD,2023-12-14 14:27:20,14.98333334,0.0002642,69.9981,172.1026,272.8289,87.2567,7.5869e-05,8.12e-06,0.0,0 STARLINK-3109,1 49143U 21082P   23348.60231540  .00000812  00000-0  75869-4 0  9995,2 49143  69.9981 172.1026 0002642 272.8289  87.2567 14.98333334125347,6950.183,96.107,573.884,570.211,0.0
49143.0,STARLINK-3109,PAYLOAD,2023-12-14 22:28:00,14.98334892,0.0002597,69.9982,171.2609,271.9547,88.1315,8.9543e-05,9.76e-06,0.0,0 STARLINK-3109,1 49143U 21082P   23348.93611313  .00000976  00000-0  89543-4 0  9996,2 49143  69.9982 171.2609 0002597 271.9547  88.1315 14.98334892125397,6950.178,96.107,573.848,570.238,0.0
49143.0,STARLINK-3109,PAYLOAD,2023-12-15 14:29:20,14.98338402,0.0002581,69.9981,169.5773,271.8218,88.2646,9.2924e-05,1.016e-05,0.0,0 STARLINK-3109,1 49143U 21082P   23349.60370792  .00001016  00000-0  92924-4 0  9997,2 49143  69.9981 169.5773 0002581 271.8218  88.2646 14.98338402125495,6950.167,96.106,573.826,570.238,0.0
49143.0,STARLINK-3109,PAYLOAD,2023-12-15 22:30:00,14.98337494,0.0002616,69.9984,168.7357,278.7948,81.2915,0.00016812,1.914e-05,0.0,0 STARLINK-3109,1 49143U 21082P   23349.93750522  .00001914  00000-0  16812-3 0  9994,2 49143  69.9984 168.7357 0002616 278.7948  81.2915 14.98337494125540,6950.17,96.107,573.853,570.217,0.0
49143.0,STARLINK-3109,PAYLOAD,2023-12-16 14:31:21,14.98337787,0.0002312,69.9989,167.0531,273.9689,86.1206,4.3385e-06,-4.1e-07,0.0,0 STARLINK-3109,1 49143U 21082P   23350.60510585 -.00000041  00000-0  43385-5 0  9991,2 49143  69.9989 167.0531 0002312 273.9689  86.1206 14.98337787125646,6950.169,96.106,573.641,570.427,0.0
49143.0,STARLINK-3109,PAYLOAD,2023-12-16 20:55:53,14.98334292,0.0002345,69.9988,166.3797,273.0338,87.0552,-3.2435e-05,-4.8e-06,0.0,0 STARLINK-3109,1 49143U 21082P   23350.87214745 -.00000480  00000-0 -32435-4 0  9990,2 49143  69.9988 166.3797 0002345 273.0338  87.0552 14.98334292125685,6950.18,96.107,573.674,570.415,0.0
49143.0,STARLINK-3109,PAYLOAD,2023-12-17 14:33:21,14.98355215,0.0002497,69.9987,164.5292,271.1666,88.9207,-0.00029013,-3.555e-05,0.0,0 STARLINK-3109,1 49143U 21082P   23351.60649846 -.00003555  00000-0 -29013-3 0  9999,2 49143  69.9987 164.5292 0002497 271.1666  88.9207 14.98355215125792,6950.115,96.105,573.715,570.244,0.0
